STARLINK-3127
1 29450C 21104AU  21325.18942881 -.00816075  00000-0 -26883-2 0  3255
2 29450  53.2175  95.6599 0032971  63.6545 162.5749 15.89586924    13
